{
    "CCSDS_OMM_VERS": "3.0",
    "COMMENT": "GENERATED VIA SPACE-TRACK.ORG API",
    "CREATION_DATE": "2025-11-22T18:56:57",
    "ORIGINATOR": "18 SPCS",
    "OBJECT_NAME": "QZS-1R",
    "OBJECT_ID": "2021-096A",
    "CENTER_NAME": "EARTH",
    "REF_FRAME": "TEME",
    "TIME_SYSTEM": "UTC",
    "MEAN_ELEMENT_THEORY": "SGP4",
    "EPOCH": "2025-11-21T16:13:51.590784",
    "MEAN_MOTION": "1.00264912",
    "ECCENTRICITY": "0.07524577",
    "INCLINATION": "37.0334",
    "RA_OF_ASC_NODE": "82.6733",
    "ARG_OF_PERICENTER": "270.9080",
    "MEAN_ANOMALY": "86.5520",
    "EPHEMERIS_TYPE": "0",
    "CLASSIFICATION_TYPE": "U",
    "NORAD_CAT_ID": "49336",
    "ELEMENT_SET_NO": "999",
    "REV_AT_EPOCH": "1493",
    "BSTAR": "0.00000000000000",
    "MEAN_MOTION_DOT": "-0.00000232",
    "MEAN_MOTION_DDOT": "0.0000000000000",
    "SEMIMAJOR_AXIS": "42166.659",
    "PERIOD": "1436.195",
    "APOAPSIS": "38961.387",
    "PERIAPSIS": "32615.661",
    "OBJECT_TYPE": "PAYLOAD",
    "RCS_SIZE": "LARGE",
    "COUNTRY_CODE": "JPN",
    "LAUNCH_DATE": "2021-10-26",
    "SITE": "TNSTA",
    "DECAY_DATE": null,
    "FILE": "4894246",
    "GP_ID": "303256525",
    "TLE_LINE0": "0 QZS-1R",
    "TLE_LINE1": "1 49336U 21096A   25325.67629156 -.00000232  00000-0  00000-0 0  9990",
    "TLE_LINE2": "2 49336  37.0334  82.6733 0752458 270.9080  86.5520  1.00264912 14931"
}